#dP2023  5 26  0  0  0.00000000      96 __u+U ITR00 EXT  IAC
## 2263 432000.00000000   900.00000000 60090 0.0000000000000
+  118   C06C07C08C10C11C12C13C14C16C19C20C21C22C23C24C25C26
+        C27C28C29C30C32C33C34C35C36C37C38C39C40C41C42C43C44
+        C45C46E02E03E04E05E07E08E09E10E11E12E13E14E15E18E19
+        E21E24E25E26E27E30E31E33E34E36G01G02G03G04G05G06G07
+        G08G09G10G11G12G13G14G15G16G17G18G19G20G21G22G23G24
+        G25G26G27G28G29G30G31G32J02J03J04R01R02R03R04R05R07
+        R08R09R11R12R13R14R15R16R17R18R19R20R21R22R24R25  0
++         0  0  0  0  0  0  0  0  0  0  0  0  0  0  0  0  0
++         0  0  0  0  0  0  0  0  0  0  0  0  0  0  0  0  0
++         0  0  0  0  0  0  0  0  0  0  0  0  0  0  0  0  0
++         0  0  0  0  0  0  0  0  0  0  0  0  0  0  0  0  0
++         0  0  0  0  0  0  0  0  0  0  0  0  0  0  0  0  0
++         0  0  0  0  0  0  0  0  0  0  0  0  0  0  0  0  0
++         0  0  0  0  0  0  0  0  0  0  0  0  0  0  0  0  0
%c M  cc GPS ccc cccc cccc cccc cccc ccccc ccccc ccccc ccccc
%c cc cc ccc ccc cccc cccc cccc cccc ccccc ccccc ccccc ccccc
%f  0.0000000  0.000000000  0.00000000000  0.000000000000000
%f  0.0000000  0.000000000  0.00000000000  0.000000000000000
%i    0    0    0    0      0      0      0      0         0
%i    0    0    0    0      0      0      0      0         0
/* IAC                                ULTRA-RAPID PREDICTION
/* S/V CLOCKS ARE ALIGNED TO GNSS TIME                      
/* G:C1WC2W R:C1PC2P E:C1XC5X C:C2IC6I J:C1CC2S             
/* PCV:IGS20_2247 OL/AL:FES2004  NONE     YN ORB:CoN CLK:CoN
*  2023 05 26 23  0  0.00000000
PC06 -16045.988202  37395.543163  10461.158782   -186.926041
PC07  -2873.254303  33977.213082  24965.619847    -78.834281
PC08 -11454.533408  19542.924534 -35600.800367    475.896232
PC10   5017.197473  37333.823883  19760.305259    -68.980511
PC11  -8498.657791 -15977.461068  21295.911564    640.808311
PC12   4953.782635 -26239.778104   8120.937753    667.665747
PC13  -2879.210969  21829.350262 -35822.474898    283.292324
PC14 -18669.922407 -20569.078790  -2247.072293    317.389516
PC16 -18346.927716  37097.142848   7449.063078     64.971230
PC19  21302.329330  14131.871635  11256.122894   -914.872576
PC20  14246.388124  23409.869537  -5363.941605    543.148146
PC21   2118.206509 -19215.259185  20131.579251   -917.775598
PC22  16460.454033  -3723.325654  22232.894391   -469.639171
PC23 -26676.649595   7115.292535   4067.944607   -939.420155
PC24  -7072.079631 -15192.036386 -22324.813515     -8.452927
PC25 -24672.655192  -4504.533927 -12262.983891    134.628197
PC26  12273.668769 -16183.932030 -19134.418598   -125.957354
PC27 -10376.543210  25898.139648     63.901725    146.058895
PC28 -17605.105950  15233.686529  15387.338881    108.227170
PC29  14917.597205   5765.558064 -22879.088472    125.723799
PC30   3247.851966  23044.641458 -15395.861442     -0.596473
PC32  -1979.559876  19224.435664 -20120.245623   -556.726971
PC33 -21360.779012 -14061.422892 -11132.370619   -886.445338
PC34  -4173.088468 -22284.064114  16268.480038    179.475282
PC35  17229.782030 -15237.300255 -15845.737834    619.825806
PC36  24126.270730   5587.576879  12884.495330   -418.560151
PC37 -13863.504312  15649.034660  18508.881171   -784.087430
PC38 -19868.529471  20175.032396 -31262.444258     81.006620
PC39 -19690.840342  37121.560008   1635.410569     -3.083596
PC40  -5689.874814  30637.900382  28513.397748    -24.377141
PC41 -16820.793025   3152.988291 -21983.875828   -935.100902
PC42 -13261.730196 -23601.982568   6745.791976   -674.943201
PC43 -14640.240090  -6782.104508  22754.673205     23.284071
PC44   9568.931143 -26231.098317   -308.953921    118.960828
PC45  26524.327138  -7352.081615  -4534.961792   -102.598034
PC46   8685.637133  14622.779494  22120.013428    -56.961921
PE02  25172.116652  14673.655937   5177.757078     40.452776
PE03  15307.188579  17257.996844  18561.006952    -20.325981
PE04 -16560.625414   4286.738656 -24143.929706   -131.103284
PE05   5014.945871  29112.543309   1931.014318    -63.752502
PE07   8268.288594 -23593.833384  15848.608825    -48.057715
PE08  16485.061901  -3913.468751  24277.542708    -89.291822
PE09  -8215.709482  23504.309616 -16011.797965    -28.550942
PE10 -24196.810912  16943.594006   1891.854563   -536.649996
PE11 -18802.894983  21193.527232  -8556.029445   2042.865068
PE12 -25439.480940  10303.772498  11046.810080   -554.978109
PE13  19333.933478 -21014.770846   7812.299826    -19.213590
PE14 -15197.564461  -4943.079676  17968.913184    236.482174
PE15  25387.408392 -10111.278286 -11390.146188    -24.770596
PE18  18949.981091  12789.043017 -22431.107856    110.225277
PE19 -14205.290840 -19725.650481 -16876.009714  -2441.774678
PE21 -10285.849297 -19270.515488 -19975.966077   -531.410660
PE24 -12212.773223  12609.185123  23821.694421   -120.783216
PE25   9927.639286  19261.193827  20168.485585   -605.730582
PE26   1196.882879 -19270.581863  22433.992335    115.925606
PE27  11397.297569 -13036.850948 -24003.887348    -59.337423
PE30  26356.510635   1280.702957 -13411.758652   -205.237938
PE31 -26144.546703   -803.414658  13862.206058   -524.598976
PE33 -16396.166542  -6682.437505  23715.198978   -443.936807
PE34  16534.772712   6531.742861 -23677.099447    -47.528988
PE36  -2023.030758  19470.778515 -22203.016835    -62.045348
PG01  -8979.710357  18966.225029 -16397.526549    182.472489
PG02 -21162.250293  15886.615171   1719.321953   -592.108669
PG03   1847.061347  16426.697903 -20949.639698   -291.135276
PG04   -488.990223  26366.052840  -2589.758012     51.806682
PG05  15253.501385  -8522.809151  19862.962238   -128.725537
PG06  21141.128831  -1687.917952 -15991.663606    587.380623
PG07   6885.040476  14184.467839  21801.651511    168.318429
PG08  -7416.927506  21160.928026  13850.681025   -124.400624
PG09   7647.011921  24382.161389   7091.557108   -149.971403
PG10 -24222.396559 -11305.181543    -32.999800    -38.588647
PG11  23373.382867 -12246.989056  -2834.892564   -211.640196
PG12   2427.074567 -15720.356372 -21560.164454   -380.935185
PG13  12959.276979 -14622.766738  17716.635720    525.517299
PG14  22799.288613  13568.738603   2456.902160     70.216972
PG15   4614.933695 -22416.101721  12796.263071     43.170103
PG16 -18796.590536   3693.931131  18281.717587   -497.457154
PG17  12926.403381  13242.207882 -18586.183825    716.239422
PG18  -9334.819969 -11700.249471  21943.958016   -282.696497
PG19  14786.624899   4466.407022 -21862.590836    322.246375
PG20  22052.659067  -4316.975787  14042.862307    431.399207
PG21 -15436.467842  19521.429687  -7368.076947    153.568223
PG22 -14969.270432   -353.266910 -21487.225121    487.927161
PG23 -17937.944244 -16147.439328  11264.422344     27.555841
PG24  11141.504027 -20871.707748 -11993.849813   -203.092886
PG25 -10599.982345 -17987.237249 -16884.116105    445.600546
PG26 -25107.436666  -2979.517806   8563.182957    240.224599
PG27 -12997.543290  10741.525343  20162.547398     29.150486
PG28 -20325.873968    293.874625 -17114.722040     80.574112
PG29  -3498.711063 -25818.286083   4854.732845   -600.827239
PG30  16700.338410   6320.398485  19850.126742   -514.875016
PG31 -23960.899824   9101.884222  -7975.322136   -216.915458
PG32 -14703.583700 -10154.807289 -19532.838199   -486.022776
PJ02 -27530.012127  21667.426716  28536.227301     -0.160814
PJ03 -33243.470212  25661.286222   8593.466960      5.012433
PJ04 -22585.390959  22517.525638 -22441.675413     94.809221
PR01 -15824.968411 -12662.130976 -15472.547288     58.245968
PR02  -9695.391798   4776.628089 -23056.930066    -22.791902
PR03   1504.664994  19233.760248 -16606.998793     78.545762
PR04  11495.812498  22735.718836  -1149.348635    188.745225
PR05  15246.291613  13953.751699  14952.949277    113.159402
PR07  -2019.893794 -19732.665336  16109.569155     56.717128
PR08 -11656.139201 -22681.719320   1100.206934    -70.990275
PR09  22614.441990  -5270.955165 -10631.050158    122.347846
PR11 -10048.127578 -10137.633245 -21124.063629    -64.795933
PR12 -24251.081807  -3814.581503  -6926.014074     27.596733
PR13 -23527.319416   4079.636211   8958.229791    -35.475260
PR14  -7939.331428  10489.551473  21863.236409     24.697868
PR15  11235.182072  10128.234037  20561.919413     89.093052
PR16  24166.867932   3758.885385   7320.862808     14.961333
PR17 -11117.004630  22374.481791  -5239.585274    633.485717
PR18   -538.228352  16859.943080 -19105.222466     83.507747
PR19   9503.875081   4411.189190 -23263.543382   -234.063291
PR20  16696.365506 -14378.536855 -12888.385198    -93.572741
PR21  10482.740862 -22249.916673   6708.591816    -10.518367
PR22    148.698827 -16479.283746  19496.683738     80.433265
PR24 -16402.229357  15231.272274  12254.859831    173.781677
PR25  12127.713647 -21849.024675   5073.600759     61.590497
EOF
